IRIDIUM 173             
1 43925U 19002D   26065.62697666  .00000128  00000+0  38786-4 0  9998
2 43925  86.3969  36.4126 0002154  84.0014 276.1427 14.34216999374255
IRIDIUM 169             
1 43926U 19002E   26065.37925844  .00000204  00000+0  60194-4 0  9996
2 43926  86.4168  68.1725 0001494  78.1296 282.0070 14.38611090375444
IRIDIUM 172             
1 43927U 19002F   26065.62063383  .00000212  00000+0  68474-4 0  9994
2 43927  86.3970  36.4230 0002366  85.8883 274.2583 14.34219217374262
IRIDIUM 175             
1 43928U 19002G   26065.25128258  .00001387  00000+0  21591-3 0  9999
2 43928  86.1543 334.2909 0002395 110.3875 249.7599 14.72252595384090
IRIDIUM 171             
1 43929U 19002H   26065.39230255  .00000014  00000+0 -20244-5 0  9999
2 43929  86.3976  36.8132 0002095  91.8409 268.3027 14.34217471374228
IRIDIUM 170             
1 43930U 19002J   26065.39799673  .00001357  00000+0  21127-3 0  9994
2 43930  86.6089  36.5016 0002708  89.9199 270.2328 14.72252757384136
IRIDIUM 167             
1 43931U 19002K   26065.87433899 -.00000033  00000+0 -18829-4 0  9991
2 43931  86.3965  36.3387 0001776  91.6091 268.5309 14.34217251374294
IRIDIUM 181             
1 56726U 23068S   26065.36028769  .00000430  00000+0  12160-3 0  9994
2 56726  86.4457  99.7926 0002624  96.8892 263.2608 14.43316382147600
IRIDIUM 177             
1 56727U 23068T   26065.83850226  .00002078  00000+0  26981-3 0  9994
2 56727  86.2001  17.3754 0002325  81.0465 279.1019 14.80252173151222
IRIDIUM 174             
1 56728U 23068U   26065.86140625  .00001520  00000+0  23710-3 0  9991
2 56728  86.6096  36.4449 0002571  80.3691 279.7816 14.72258855150965
IRIDIUM 178             
1 56729U 23068V   26065.28682946  .00000758  00000+0  96364-4 0  9993
2 56729  86.6483  68.3620 0002380 100.7325 259.4165 14.80233023151142
IRIDIUM 179             
1 56730U 23068W   26065.28145970  .00000478  00000+0  59492-4 0  9996
2 56730  86.6716  77.0455 0002249  95.1606 264.9872 14.80233655151146
