[{"OBJECT_NAME":"IRIDIUM 173","OBJECT_ID":"2019-002D","EPOCH":"2026-03-06T15:02:50.783424","MEAN_MOTION":14.34216999,"ECCENTRICITY":0.0002154,"INCLINATION":86.3969,"RA_OF_ASC_NODE":36.4126,"ARG_OF_PERICENTER":84.0014,"MEAN_ANOMALY":276.1427,"EPHEMERIS_TYPE":0,"CLASSIFICATION_TYPE":"U","NORAD_CAT_ID":43925,"ELEMENT_SET_NO":999,"REV_AT_EPOCH":37425,"BSTAR":3.8786378e-5,"MEAN_MOTION_DOT":1.28e-6,"MEAN_MOTION_DDOT":0},{"OBJECT_NAME":"IRIDIUM 169","OBJECT_ID":"2019-002E","EPOCH":"2026-03-06T09:06:07.929216","MEAN_MOTION":14.3861109,"ECCENTRICITY":0.00014949,"INCLINATION":86.4168,"RA_OF_ASC_NODE":68.1725,"ARG_OF_PERICENTER":78.1296,"MEAN_ANOMALY":282.007,"EPHEMERIS_TYPE":0,"CLASSIFICATION_TYPE":"U","NORAD_CAT_ID":43926,"ELEMENT_SET_NO":999,"REV_AT_EPOCH":37544,"BSTAR":6.0193676e-5,"MEAN_MOTION_DOT":2.04e-6,"MEAN_MOTION_DDOT":0},{"OBJECT_NAME":"IRIDIUM 172","OBJECT_ID":"2019-002F","EPOCH":"2026-03-06T14:53:42.762912","MEAN_MOTION":14.34219217,"ECCENTRICITY":0.00023666,"INCLINATION":86.397,"RA_OF_ASC_NODE":36.423,"ARG_OF_PERICENTER":85.8883,"MEAN_ANOMALY":274.2583,"EPHEMERIS_TYPE":0,"CLASSIFICATION_TYPE":"U","NORAD_CAT_ID":43927,"ELEMENT_SET_NO":999,"REV_AT_EPOCH":37426,"BSTAR":6.8473548e-5,"MEAN_MOTION_DOT":2.12e-6,"MEAN_MOTION_DDOT":0},{"OBJECT_NAME":"IRIDIUM 175","OBJECT_ID":"2019-002G","EPOCH":"2026-03-06T06:01:50.814912","MEAN_MOTION":14.72252595,"ECCENTRICITY":0.0002395,"INCLINATION":86.1543,"RA_OF_ASC_NODE":334.2909,"ARG_OF_PERICENTER":110.3875,"MEAN_ANOMALY":249.7599,"EPHEMERIS_TYPE":0,"CLASSIFICATION_TYPE":"U","NORAD_CAT_ID":43928,"ELEMENT_SET_NO":999,"REV_AT_EPOCH":38409,"BSTAR":0.00021591468,"MEAN_MOTION_DOT":1.387e-5,"MEAN_MOTION_DDOT":0},{"OBJECT_NAME":"IRIDIUM 171","OBJECT_ID":"2019-002H","EPOCH":"2026-03-06T09:24:54.940320","MEAN_MOTION":14.34217471,"ECCENTRICITY":0.00020951,"INCLINATION":86.3976,"RA_OF_ASC_NODE":36.8132,"ARG_OF_PERICENTER":91.8409,"MEAN_ANOMALY":268.3027,"EPHEMERIS_TYPE":0,"CLASSIFICATION_TYPE":"U","NORAD_CAT_ID":43929,"ELEMENT_SET_NO":999,"REV_AT_EPOCH":37422,"BSTAR":-2.024356e-6,"MEAN_MOTION_DOT":1.4e-7,"MEAN_MOTION_DDOT":0},{"OBJECT_NAME":"IRIDIUM 170","OBJECT_ID":"2019-002J","EPOCH":"2026-03-06T09:33:06.917472","MEAN_MOTION":14.72252757,"ECCENTRICITY":0.00027089,"INCLINATION":86.6089,"RA_OF_ASC_NODE":36.5016,"ARG_OF_PERICENTER":89.9199,"MEAN_ANOMALY":270.2328,"EPHEMERIS_TYPE":0,"CLASSIFICATION_TYPE":"U","NORAD_CAT_ID":43930,"ELEMENT_SET_NO":999,"REV_AT_EPOCH":38413,"BSTAR":0.000211265,"MEAN_MOTION_DOT":1.357e-5,"MEAN_MOTION_DDOT":0},{"OBJECT_NAME":"IRIDIUM 167","OBJECT_ID":"2019-002K","EPOCH":"2026-03-06T20:59:02.888736","MEAN_MOTION":14.34217251,"ECCENTRICITY":0.0001776,"INCLINATION":86.3965,"RA_OF_ASC_NODE":36.3387,"ARG_OF_PERICENTER":91.6091,"MEAN_ANOMALY":268.5309,"EPHEMERIS_TYPE":0,"CLASSIFICATION_TYPE":"U","NORAD_CAT_ID":43931,"ELEMENT_SET_NO":999,"REV_AT_EPOCH":37429,"BSTAR":-1.8829e-5,"MEAN_MOTION_DOT":-3.3e-7,"MEAN_MOTION_DDOT":0},{"OBJECT_NAME":"IRIDIUM 181","OBJECT_ID":"2023-068S","EPOCH":"2026-03-06T08:38:48.856416","MEAN_MOTION":14.43316382,"ECCENTRICITY":0.00026243,"INCLINATION":86.4457,"RA_OF_ASC_NODE":99.7926,"ARG_OF_PERICENTER":96.8892,"MEAN_ANOMALY":263.2608,"EPHEMERIS_TYPE":0,"CLASSIFICATION_TYPE":"U","NORAD_CAT_ID":56726,"ELEMENT_SET_NO":999,"REV_AT_EPOCH":14760,"BSTAR":0.0001216049,"MEAN_MOTION_DOT":4.3e-6,"MEAN_MOTION_DDOT":0},{"OBJECT_NAME":"IRIDIUM 177","OBJECT_ID":"2023-068T","EPOCH":"2026-03-06T20:07:26.595264","MEAN_MOTION":14.80252173,"ECCENTRICITY":0.0002325,"INCLINATION":86.2001,"RA_OF_ASC_NODE":17.3754,"ARG_OF_PERICENTER":81.0465,"MEAN_ANOMALY":279.1019,"EPHEMERIS_TYPE":0,"CLASSIFICATION_TYPE":"U","NORAD_CAT_ID":56727,"ELEMENT_SET_NO":999,"REV_AT_EPOCH":15122,"BSTAR":0.00026981,"MEAN_MOTION_DOT":2.078e-5,"MEAN_MOTION_DDOT":0},{"OBJECT_NAME":"IRIDIUM 174","OBJECT_ID":"2023-068U","EPOCH":"2026-03-06T20:40:25.500000","MEAN_MOTION":14.72258855,"ECCENTRICITY":0.0002571,"INCLINATION":86.6096,"RA_OF_ASC_NODE":36.4449,"ARG_OF_PERICENTER":80.3691,"MEAN_ANOMALY":279.7816,"EPHEMERIS_TYPE":0,"CLASSIFICATION_TYPE":"U","NORAD_CAT_ID":56728,"ELEMENT_SET_NO":999,"REV_AT_EPOCH":15096,"BSTAR":0.0002371,"MEAN_MOTION_DOT":1.52e-5,"MEAN_MOTION_DDOT":0},{"OBJECT_NAME":"IRIDIUM 178","OBJECT_ID":"2023-068V","EPOCH":"2026-03-06T06:53:02.065344","MEAN_MOTION":14.80233023,"ECCENTRICITY":0.000238,"INCLINATION":86.6483,"RA_OF_ASC_NODE":68.362,"ARG_OF_PERICENTER":100.7325,"MEAN_ANOMALY":259.4165,"EPHEMERIS_TYPE":0,"CLASSIFICATION_TYPE":"U","NORAD_CAT_ID":56729,"ELEMENT_SET_NO":999,"REV_AT_EPOCH":15114,"BSTAR":9.6363714e-5,"MEAN_MOTION_DOT":7.58e-6,"MEAN_MOTION_DDOT":0},{"OBJECT_NAME":"IRIDIUM 179","OBJECT_ID":"2023-068W","EPOCH":"2026-03-06T06:45:18.118080","MEAN_MOTION":14.80233655,"ECCENTRICITY":0.0002249,"INCLINATION":86.6716,"RA_OF_ASC_NODE":77.0455,"ARG_OF_PERICENTER":95.1606,"MEAN_ANOMALY":264.9872,"EPHEMERIS_TYPE":0,"CLASSIFICATION_TYPE":"U","NORAD_CAT_ID":56730,"ELEMENT_SET_NO":999,"REV_AT_EPOCH":15114,"BSTAR":5.949244e-5,"MEAN_MOTION_DOT":4.78e-6,"MEAN_MOTION_DDOT":0}]
